[{"OBJECT_NAME":"IRIDIUM 174","OBJECT_ID":"2023-068U","EPOCH":"2026-03-09T22:04:44.769504","MEAN_MOTION":14.7225064,"ECCENTRICITY":0.00025981,"INCLINATION":86.6101,"RA_OF_ASC_NODE":35.1661,"ARG_OF_PERICENTER":80.0805,"MEAN_ANOMALY":280.0705,"EPHEMERIS_TYPE":0,"CLASSIFICATION_TYPE":"U","NORAD_CAT_ID":56728,"ELEMENT_SET_NO":999,"REV_AT_EPOCH":15141,"BSTAR":0.00022876362,"MEAN_MOTION_DOT":1.467e-5,"MEAN_MOTION_DDOT":0},{"OBJECT_NAME":"COSMOS 2251 DEB","OBJECT_ID":"1993-036AYW","EPOCH":"2026-03-04T20:05:54.697632","MEAN_MOTION":14.75602519,"ECCENTRICITY":0.00114294,"INCLINATION":74.0282,"RA_OF_ASC_NODE":270.3454,"ARG_OF_PERICENTER":325.6872,"MEAN_ANOMALY":34.3563,"EPHEMERIS_TYPE":0,"CLASSIFICATION_TYPE":"U","NORAD_CAT_ID":36369,"ELEMENT_SET_NO":999,"REV_AT_EPOCH":87132,"BSTAR":0.0018310016,"MEAN_MOTION_DOT":0.00012496,"MEAN_MOTION_DDOT":0}]
